STARLINK-33556          
1 62109U 24220X   25312.33321287  .00031514  00000+0  11500-2 0  9992
2 62109  43.0017 170.7052 0001734 281.6172  78.4485 15.27575125 54655
STARLINK-33551          
1 62110U 24220Y   25312.50001156  .00050993  00000+0  18504-2 0  9996
2 62110  42.9991 169.9896 0001652 277.4591 181.9338 15.27569712  5916
STARLINK-32311          
1 62114U 24222A   25312.08071240  .00029911  00000+0  10921-2 0  9997
2 62114  43.0039  87.9834 0001201 277.2058  82.8657 15.27578436 54484
STARLINK-32470          
1 62115U 24222B   25312.48021852  .00050815  00000+0  18427-2 0  9992
2 62115  43.0024 100.5300 0001361 236.7960 123.2761 15.27593005 54360
STARLINK-32502          
1 62116U 24222C   25311.84821077  .00055819  00000+0  20211-2 0  9992
2 62116  43.0004 104.3881 0002601 269.2256  90.8298 15.27602897 54175
STARLINK-32521          
1 62117U 24222D   25311.76915637  .00049991  00000+0  18123-2 0  9993
2 62117  43.0013 101.0783 0001935 258.8143 101.2491 15.27608705 54142
STARLINK-32549          
1 62118U 24222E   25312.13917004  .00035813  00000+0  13049-2 0  9996
2 62118  43.0029 102.2764 0001835 266.3504  93.7138 15.27572819 54224
STARLINK-32535          
1 62119U 24222F   25312.11795672  .00031744  00000+0  11584-2 0  9991
2 62119  43.0008  99.5161 0001374 268.7091  91.3603 15.27572385 54203
STARLINK-32548          
1 62120U 24222G   25312.12389706  .00037869  00000+0  13786-2 0  9991
2 62120  43.0012 103.0158 0001220 266.0663  94.0049 15.27580235 54165
STARLINK-32525          
1 62121U 24222H   25312.47252236  .00029159  00000+0  10642-2 0  9998
2 62121  43.0022 100.4733 0001677 253.1821 106.8846 15.27604386 54224
STARLINK-32628          
1 62122U 24222J   25312.49051684  .00029554  00000+0  10789-2 0  9996
2 62122  43.0003 100.6014 0001751 269.9781  90.0870 15.27588979 54388
STARLINK-32626          
1 62123U 24222K   25312.11747778  .00043256  00000+0  15721-2 0  9998
2 62123  42.9989 102.9687 0001284 284.8350  75.2359 15.27583212 54157
STARLINK-32608          
1 62124U 24222L   25311.83022389  .00045752  00000+0  16617-2 0  9999
2 62124  43.0028 104.2495 0001889 268.1136  91.9500 15.27581584 54102
STARLINK-32488          
1 62125U 24222M   25312.12774613  .00031621  00000+0  11529-2 0  9994
2 62125  43.0012 103.0448 0000917 255.8518 104.2232 15.27601619 54055
STARLINK-32490          
1 62126U 24222N   25312.27249086  .00011786  00000+0  43716-3 0  9996
2 62126  43.0028 101.5550 0000970 257.4890 102.5853 15.27578100 54182
STARLINK-32557          
1 62127U 24222P   25312.09576853  .00031910  00000+0  11642-2 0  9995
2 62127  43.0026  92.2723 0001209 283.8893  76.1824 15.27576805 54321
