[{"OBJECT_NAME":"STARLINK-33556","OBJECT_ID":"2024-220X","EPOCH":"2025-11-08T07:59:49.591968","MEAN_MOTION":15.27575125,"ECCENTRICITY":0.0001734,"INCLINATION":43.0017,"RA_OF_ASC_NODE":170.7052,"ARG_OF_PERICENTER":281.6172,"MEAN_ANOMALY":78.4485,"EPHEMERIS_TYPE":0,"CLASSIFICATION_TYPE":"U","NORAD_CAT_ID":62109,"ELEMENT_SET_NO":999,"REV_AT_EPOCH":5465,"BSTAR":0.00115,"MEAN_MOTION_DOT":0.00031514,"MEAN_MOTION_DDOT":0},{"OBJECT_NAME":"STARLINK-33551","OBJECT_ID":"2024-220Y","EPOCH":"2025-11-08T12:00:00.998784","MEAN_MOTION":15.27569712,"ECCENTRICITY":0.0001652,"INCLINATION":42.9991,"RA_OF_ASC_NODE":169.9896,"ARG_OF_PERICENTER":277.4591,"MEAN_ANOMALY":181.9338,"EPHEMERIS_TYPE":0,"CLASSIFICATION_TYPE":"U","NORAD_CAT_ID":62110,"ELEMENT_SET_NO":999,"REV_AT_EPOCH":591,"BSTAR":0.0018504,"MEAN_MOTION_DOT":0.00050993,"MEAN_MOTION_DDOT":0},{"OBJECT_NAME":"STARLINK-32311","OBJECT_ID":"2024-222A","EPOCH":"2025-11-08T01:56:13.551360","MEAN_MOTION":15.27578436,"ECCENTRICITY":0.0001201,"INCLINATION":43.0039,"RA_OF_ASC_NODE":87.9834,"ARG_OF_PERICENTER":277.2058,"MEAN_ANOMALY":82.8657,"EPHEMERIS_TYPE":0,"CLASSIFICATION_TYPE":"U","NORAD_CAT_ID":62114,"ELEMENT_SET_NO":999,"REV_AT_EPOCH":5448,"BSTAR":0.0010921113,"MEAN_MOTION_DOT":0.00029911,"MEAN_MOTION_DDOT":0},{"OBJECT_NAME":"STARLINK-32470","OBJECT_ID":"2024-222B","EPOCH":"2025-11-08T11:31:30.880128","MEAN_MOTION":15.27593005,"ECCENTRICITY":0.0001361,"INCLINATION":43.0024,"RA_OF_ASC_NODE":100.53,"ARG_OF_PERICENTER":236.796,"MEAN_ANOMALY":123.2761,"EPHEMERIS_TYPE":0,"CLASSIFICATION_TYPE":"U","NORAD_CAT_ID":62115,"ELEMENT_SET_NO":999,"REV_AT_EPOCH":5436,"BSTAR":0.0018427,"MEAN_MOTION_DOT":0.00050815,"MEAN_MOTION_DDOT":0},{"OBJECT_NAME":"STARLINK-32502","OBJECT_ID":"2024-222C","EPOCH":"2025-11-07T20:21:25.410528","MEAN_MOTION":15.27602897,"ECCENTRICITY":0.00026013,"INCLINATION":43.0004,"RA_OF_ASC_NODE":104.3881,"ARG_OF_PERICENTER":269.2256,"MEAN_ANOMALY":90.8298,"EPHEMERIS_TYPE":0,"CLASSIFICATION_TYPE":"U","NORAD_CAT_ID":62116,"ELEMENT_SET_NO":999,"REV_AT_EPOCH":5417,"BSTAR":0.0020211302,"MEAN_MOTION_DOT":0.00055819,"MEAN_MOTION_DDOT":0},{"OBJECT_NAME":"STARLINK-32521","OBJECT_ID":"2024-222D","EPOCH":"2025-11-07T18:27:35.110368","MEAN_MOTION":15.27608705,"ECCENTRICITY":0.00019352,"INCLINATION":43.0013,"RA_OF_ASC_NODE":101.0783,"ARG_OF_PERICENTER":258.8143,"MEAN_ANOMALY":101.2491,"EPHEMERIS_TYPE":0,"CLASSIFICATION_TYPE":"U","NORAD_CAT_ID":62117,"ELEMENT_SET_NO":999,"REV_AT_EPOCH":5414,"BSTAR":0.0018122851,"MEAN_MOTION_DOT":0.00049991,"MEAN_MOTION_DDOT":0},{"OBJECT_NAME":"STARLINK-32549","OBJECT_ID":"2024-222E","EPOCH":"2025-11-08T03:20:24.291456","MEAN_MOTION":15.27572819,"ECCENTRICITY":0.00018351,"INCLINATION":43.0029,"RA_OF_ASC_NODE":102.2764,"ARG_OF_PERICENTER":266.3504,"MEAN_ANOMALY":93.7138,"EPHEMERIS_TYPE":0,"CLASSIFICATION_TYPE":"U","NORAD_CAT_ID":62118,"ELEMENT_SET_NO":999,"REV_AT_EPOCH":5422,"BSTAR":0.001304905,"MEAN_MOTION_DOT":0.00035813,"MEAN_MOTION_DDOT":0},{"OBJECT_NAME":"STARLINK-32535","OBJECT_ID":"2024-222F","EPOCH":"2025-11-08T02:49:51.460608","MEAN_MOTION":15.27572385,"ECCENTRICITY":0.00013747,"INCLINATION":43.0008,"RA_OF_ASC_NODE":99.5161,"ARG_OF_PERICENTER":268.7091,"MEAN_ANOMALY":91.3603,"EPHEMERIS_TYPE":0,"CLASSIFICATION_TYPE":"U","NORAD_CAT_ID":62119,"ELEMENT_SET_NO":999,"REV_AT_EPOCH":5420,"BSTAR":0.0011583928,"MEAN_MOTION_DOT":0.00031744,"MEAN_MOTION_DDOT":0},{"OBJECT_NAME":"STARLINK-32548","OBJECT_ID":"2024-222G","EPOCH":"2025-11-08T02:58:24.705984","MEAN_MOTION":15.27580235,"ECCENTRICITY":0.00012206,"INCLINATION":43.0012,"RA_OF_ASC_NODE":103.0158,"ARG_OF_PERICENTER":266.0663,"MEAN_ANOMALY":94.0049,"EPHEMERIS_TYPE":0,"CLASSIFICATION_TYPE":"U","NORAD_CAT_ID":62120,"ELEMENT_SET_NO":999,"REV_AT_EPOCH":5416,"BSTAR":0.0013785837,"MEAN_MOTION_DOT":0.00037869,"MEAN_MOTION_DDOT":0},{"OBJECT_NAME":"STARLINK-32525","OBJECT_ID":"2024-222H","EPOCH":"2025-11-08T11:20:25.931904","MEAN_MOTION":15.27604386,"ECCENTRICITY":0.0001677,"INCLINATION":43.0022,"RA_OF_ASC_NODE":100.4733,"ARG_OF_PERICENTER":253.1821,"MEAN_ANOMALY":106.8846,"EPHEMERIS_TYPE":0,"CLASSIFICATION_TYPE":"U","NORAD_CAT_ID":62121,"ELEMENT_SET_NO":999,"REV_AT_EPOCH":5422,"BSTAR":0.0010642,"MEAN_MOTION_DOT":0.00029159,"MEAN_MOTION_DDOT":0},{"OBJECT_NAME":"STARLINK-32628","OBJECT_ID":"2024-222J","EPOCH":"2025-11-08T11:46:20.654976","MEAN_MOTION":15.27588979,"ECCENTRICITY":0.0001751,"INCLINATION":43.0003,"RA_OF_ASC_NODE":100.6014,"ARG_OF_PERICENTER":269.9781,"MEAN_ANOMALY":90.087,"EPHEMERIS_TYPE":0,"CLASSIFICATION_TYPE":"U","NORAD_CAT_ID":62122,"ELEMENT_SET_NO":999,"REV_AT_EPOCH":5438,"BSTAR":0.0010789,"MEAN_MOTION_DOT":0.00029554,"MEAN_MOTION_DDOT":0},{"OBJECT_NAME":"STARLINK-32626","OBJECT_ID":"2024-222K","EPOCH":"2025-11-08T02:49:10.080192","MEAN_MOTION":15.27583212,"ECCENTRICITY":0.00012846,"INCLINATION":42.9989,"RA_OF_ASC_NODE":102.9687,"ARG_OF_PERICENTER":284.835,"MEAN_ANOMALY":75.2359,"EPHEMERIS_TYPE":0,"CLASSIFICATION_TYPE":"U","NORAD_CAT_ID":62123,"ELEMENT_SET_NO":999,"REV_AT_EPOCH":5415,"BSTAR":0.001572054,"MEAN_MOTION_DOT":0.00043256,"MEAN_MOTION_DDOT":0},{"OBJECT_NAME":"STARLINK-32608","OBJECT_ID":"2024-222L","EPOCH":"2025-11-07T19:55:31.344096","MEAN_MOTION":15.27581584,"ECCENTRICITY":0.00018892,"INCLINATION":43.0028,"RA_OF_ASC_NODE":104.2495,"ARG_OF_PERICENTER":268.1136,"MEAN_ANOMALY":91.95,"EPHEMERIS_TYPE":0,"CLASSIFICATION_TYPE":"U","NORAD_CAT_ID":62124,"ELEMENT_SET_NO":999,"REV_AT_EPOCH":5410,"BSTAR":0.0016617347,"MEAN_MOTION_DOT":0.00045752,"MEAN_MOTION_DDOT":0},{"OBJECT_NAME":"STARLINK-32488","OBJECT_ID":"2024-222M","EPOCH":"2025-11-08T03:03:57.265632","MEAN_MOTION":15.27601619,"ECCENTRICITY":9.172e-5,"INCLINATION":43.0012,"RA_OF_ASC_NODE":103.0448,"ARG_OF_PERICENTER":255.8518,"MEAN_ANOMALY":104.2232,"EPHEMERIS_TYPE":0,"CLASSIFICATION_TYPE":"U","NORAD_CAT_ID":62125,"ELEMENT_SET_NO":999,"REV_AT_EPOCH":5405,"BSTAR":0.0011529208,"MEAN_MOTION_DOT":0.00031621,"MEAN_MOTION_DDOT":0},{"OBJECT_NAME":"STARLINK-32490","OBJECT_ID":"2024-222N","EPOCH":"2025-11-08T06:32:23.210304","MEAN_MOTION":15.275781,"ECCENTRICITY":9.704e-5,"INCLINATION":43.0028,"RA_OF_ASC_NODE":101.555,"ARG_OF_PERICENTER":257.489,"MEAN_ANOMALY":102.5853,"EPHEMERIS_TYPE":0,"CLASSIFICATION_TYPE":"U","NORAD_CAT_ID":62126,"ELEMENT_SET_NO":999,"REV_AT_EPOCH":5418,"BSTAR":0.00043715986,"MEAN_MOTION_DOT":0.00011786,"MEAN_MOTION_DDOT":0},{"OBJECT_NAME":"STARLINK-32557","OBJECT_ID":"2024-222P","EPOCH":"2025-11-08T02:17:54.400992","MEAN_MOTION":15.27576805,"ECCENTRICITY":0.00012097,"INCLINATION":43.0026,"RA_OF_ASC_NODE":92.2723,"ARG_OF_PERICENTER":283.8893,"MEAN_ANOMALY":76.1824,"EPHEMERIS_TYPE":0,"CLASSIFICATION_TYPE":"U","NORAD_CAT_ID":62127,"ELEMENT_SET_NO":999,"REV_AT_EPOCH":5432,"BSTAR":0.001164202,"MEAN_MOTION_DOT":0.0003191,"MEAN_MOTION_DDOT":0}]
